0 TITAN 3C TRANSTAGE DEB
1 01859U 65082ES  13282.31838169  .00000493  00000-0  12427-3 0  3617
2 01859 032.1271 259.2449 0070964 258.0637 242.0808 14.45245786516072
0 TITAN 3C TRANSTAGE DEB
1 01859U 65082ES  13284.32467303  .00000482  00000-0  12145-3 0  3624
2 01859 032.1269 247.6984 0070913 275.6047 240.6616 14.45247360516361
0 TITAN 3C TRANSTAGE DEB
1 01859U 65082ES  13287.14980579  .00000530  00000-0  13478-3 0  3637
2 01859 032.1267 231.4397 0070779 300.3768 179.5655 14.45249359516772
0 TITAN 3C TRANSTAGE DEB
1 01859U 65082ES  13289.15464906  .00000608  00000-0  15606-3 0  3643
2 01859 032.1264 219.9018 0070668 318.0141 170.5367 14.45252960517064
0 TITAN 3C TRANSTAGE DEB
1 01859U 65082ES  13291.16175214  .00000571  00000-0  14611-3 0  3653
2 01859 032.1260 208.3509 0070592 335.6291 173.3290 14.45255125517358
0 TITAN 3C TRANSTAGE DEB
1 01859U 65082ES  13293.83810885  .00000610  00000-0  15696-3 0  3668
2 01859 032.1257 192.9479 0070489 359.1998 058.1389 14.45258056517746
0 TITAN 3C TRANSTAGE DEB
1 01859U 65082ES  13295.84384359  .00000627  00000-0  16166-3 0  3675
2 01859 032.1255 181.4042 0070437 016.8906 053.7665 14.45260563518039
